<?xml version="1.0" encoding="UTF-8"?>
<gpx version="1.1" creator="openathlete-e2e" xmlns="http://www.topografix.com/GPX/1/1" xmlns:gpxtpx="http://www.garmin.com/xmlschemas/TrackPointExtension/v1">
  <trk>
    <name>Synthetic run</name>
    <type>running</type>
    <trkseg>
      <trkpt lat="43.360000" lon="-8.410000"><ele>20</ele><time>2024-05-02T07:00:00Z</time><extensions><gpxtpx:TrackPointExtension><gpxtpx:hr>140</gpxtpx:hr></gpxtpx:TrackPointExtension></extensions></trkpt>
      <trkpt lat="43.360225" lon="-8.410000"><ele>21</ele><time>2024-05-02T07:00:10Z</time><extensions><gpxtpx:TrackPointExtension><gpxtpx:hr>141</gpxtpx:hr></gpxtpx:TrackPointExtension></extensions></trkpt>
      <trkpt lat="43.360450" lon="-8.410000"><ele>22</ele><time>2024-05-02T07:00:20Z</time><extensions><gpxtpx:TrackPointExtension><gpxtpx:hr>142</gpxtpx:hr></gpxtpx:TrackPointExtension></extensions></trkpt>
      <trkpt lat="43.360675" lon="-8.410000"><ele>23</ele><time>2024-05-02T07:00:30Z</time><extensions><gpxtpx:TrackPointExtension><gpxtpx:hr>143</gpxtpx:hr></gpxtpx:TrackPointExtension></extensions></trkpt>
      <trkpt lat="43.360900" lon="-8.410000"><ele>24</ele><time>2024-05-02T07:00:40Z</time><extensions><gpxtpx:TrackPointExtension><gpxtpx:hr>144</gpxtpx:hr></gpxtpx:TrackPointExtension></extensions></trkpt>
      <trkpt lat="43.361125" lon="-8.410000"><ele>25</ele><time>2024-05-02T07:00:50Z</time><extensions><gpxtpx:TrackPointExtension><gpxtpx:hr>145</gpxtpx:hr></gpxtpx:TrackPointExtension></extensions></trkpt>
      <trkpt lat="43.361350" lon="-8.410000"><ele>26</ele><time>2024-05-02T07:01:00Z</time><extensions><gpxtpx:TrackPointExtension><gpxtpx:hr>146</gpxtpx:hr></gpxtpx:TrackPointExtension></extensions></trkpt>
      <trkpt lat="43.361575" lon="-8.410000"><ele>27</ele><time>2024-05-02T07:01:10Z</time><extensions><gpxtpx:TrackPointExtension><gpxtpx:hr>147</gpxtpx:hr></gpxtpx:TrackPointExtension></extensions></trkpt>
      <trkpt lat="43.361800" lon="-8.410000"><ele>28</ele><time>2024-05-02T07:01:20Z</time><extensions><gpxtpx:TrackPointExtension><gpxtpx:hr>148</gpxtpx:hr></gpxtpx:TrackPointExtension></extensions></trkpt>
      <trkpt lat="43.362025" lon="-8.410000"><ele>29</ele><time>2024-05-02T07:01:30Z</time><extensions><gpxtpx:TrackPointExtension><gpxtpx:hr>149</gpxtpx:hr></gpxtpx:TrackPointExtension></extensions></trkpt>
      <trkpt lat="43.362250" lon="-8.410000"><ele>30</ele><time>2024-05-02T07:01:40Z</time><extensions><gpxtpx:TrackPointExtension><gpxtpx:hr>140</gpxtpx:hr></gpxtpx:TrackPointExtension></extensions></trkpt>
      <trkpt lat="43.362475" lon="-8.410000"><ele>31</ele><time>2024-05-02T07:01:50Z</time><extensions><gpxtpx:TrackPointExtension><gpxtpx:hr>141</gpxtpx:hr></gpxtpx:TrackPointExtension></extensions></trkpt>
      <trkpt lat="43.362700" lon="-8.410000"><ele>20</ele><time>2024-05-02T07:02:00Z</time><extensions><gpxtpx:TrackPointExtension><gpxtpx:hr>142</gpxtpx:hr></gpxtpx:TrackPointExtension></extensions></trkpt>
      <trkpt lat="43.362925" lon="-8.410000"><ele>21</ele><time>2024-05-02T07:02:10Z</time><extensions><gpxtpx:TrackPointExtension><gpxtpx:hr>143</gpxtpx:hr></gpxtpx:TrackPointExtension></extensions></trkpt>
      <trkpt lat="43.363150" lon="-8.410000"><ele>22</ele><time>2024-05-02T07:02:20Z</time><extensions><gpxtpx:TrackPointExtension><gpxtpx:hr>144</gpxtpx:hr></gpxtpx:TrackPointExtension></extensions></trkpt>
      <trkpt lat="43.363375" lon="-8.410000"><ele>23</ele><time>2024-05-02T07:02:30Z</time><extensions><gpxtpx:TrackPointExtension><gpxtpx:hr>145</gpxtpx:hr></gpxtpx:TrackPointExtension></extensions></trkpt>
      <trkpt lat="43.363600" lon="-8.410000"><ele>24</ele><time>2024-05-02T07:02:40Z</time><extensions><gpxtpx:TrackPointExtension><gpxtpx:hr>146</gpxtpx:hr></gpxtpx:TrackPointExtension></extensions></trkpt>
      <trkpt lat="43.363825" lon="-8.410000"><ele>25</ele><time>2024-05-02T07:02:50Z</time><extensions><gpxtpx:TrackPointExtension><gpxtpx:hr>147</gpxtpx:hr></gpxtpx:TrackPointExtension></extensions></trkpt>
      <trkpt lat="43.364050" lon="-8.410000"><ele>26</ele><time>2024-05-02T07:03:00Z</time><extensions><gpxtpx:TrackPointExtension><gpxtpx:hr>148</gpxtpx:hr></gpxtpx:TrackPointExtension></extensions></trkpt>
      <trkpt lat="43.364275" lon="-8.410000"><ele>27</ele><time>2024-05-02T07:03:10Z</time><extensions><gpxtpx:TrackPointExtension><gpxtpx:hr>149</gpxtpx:hr></gpxtpx:TrackPointExtension></extensions></trkpt>
      <trkpt lat="43.364500" lon="-8.410000"><ele>28</ele><time>2024-05-02T07:03:20Z</time><extensions><gpxtpx:TrackPointExtension><gpxtpx:hr>140</gpxtpx:hr></gpxtpx:TrackPointExtension></extensions></trkpt>
      <trkpt lat="43.364725" lon="-8.410000"><ele>29</ele><time>2024-05-02T07:03:30Z</time><extensions><gpxtpx:TrackPointExtension><gpxtpx:hr>141</gpxtpx:hr></gpxtpx:TrackPointExtension></extensions></trkpt>
      <trkpt lat="43.364950" lon="-8.410000"><ele>30</ele><time>2024-05-02T07:03:40Z</time><extensions><gpxtpx:TrackPointExtension><gpxtpx:hr>142</gpxtpx:hr></gpxtpx:TrackPointExtension></extensions></trkpt>
      <trkpt lat="43.365175" lon="-8.410000"><ele>31</ele><time>2024-05-02T07:03:50Z</time><extensions><gpxtpx:TrackPointExtension><gpxtpx:hr>143</gpxtpx:hr></gpxtpx:TrackPointExtension></extensions></trkpt>
      <trkpt lat="43.365400" lon="-8.410000"><ele>20</ele><time>2024-05-02T07:04:00Z</time><extensions><gpxtpx:TrackPointExtension><gpxtpx:hr>144</gpxtpx:hr></gpxtpx:TrackPointExtension></extensions></trkpt>
      <trkpt lat="43.365625" lon="-8.410000"><ele>21</ele><time>2024-05-02T07:04:10Z</time><extensions><gpxtpx:TrackPointExtension><gpxtpx:hr>145</gpxtpx:hr></gpxtpx:TrackPointExtension></extensions></trkpt>
      <trkpt lat="43.365850" lon="-8.410000"><ele>22</ele><time>2024-05-02T07:04:20Z</time><extensions><gpxtpx:TrackPointExtension><gpxtpx:hr>146</gpxtpx:hr></gpxtpx:TrackPointExtension></extensions></trkpt>
      <trkpt lat="43.366075" lon="-8.410000"><ele>23</ele><time>2024-05-02T07:04:30Z</time><extensions><gpxtpx:TrackPointExtension><gpxtpx:hr>147</gpxtpx:hr></gpxtpx:TrackPointExtension></extensions></trkpt>
      <trkpt lat="43.366300" lon="-8.410000"><ele>24</ele><time>2024-05-02T07:04:40Z</time><extensions><gpxtpx:TrackPointExtension><gpxtpx:hr>148</gpxtpx:hr></gpxtpx:TrackPointExtension></extensions></trkpt>
      <trkpt lat="43.366525" lon="-8.410000"><ele>25</ele><time>2024-05-02T07:04:50Z</time><extensions><gpxtpx:TrackPointExtension><gpxtpx:hr>149</gpxtpx:hr></gpxtpx:TrackPointExtension></extensions></trkpt>
      <trkpt lat="43.366750" lon="-8.410000"><ele>26</ele><time>2024-05-02T07:05:00Z</time><extensions><gpxtpx:TrackPointExtension><gpxtpx:hr>140</gpxtpx:hr></gpxtpx:TrackPointExtension></extensions></trkpt>
      <trkpt lat="43.366975" lon="-8.410000"><ele>27</ele><time>2024-05-02T07:05:10Z</time><extensions><gpxtpx:TrackPointExtension><gpxtpx:hr>141</gpxtpx:hr></gpxtpx:TrackPointExtension></extensions></trkpt>
      <trkpt lat="43.367200" lon="-8.410000"><ele>28</ele><time>2024-05-02T07:05:20Z</time><extensions><gpxtpx:TrackPointExtension><gpxtpx:hr>142</gpxtpx:hr></gpxtpx:TrackPointExtension></extensions></trkpt>
      <trkpt lat="43.367425" lon="-8.410000"><ele>29</ele><time>2024-05-02T07:05:30Z</time><extensions><gpxtpx:TrackPointExtension><gpxtpx:hr>143</gpxtpx:hr></gpxtpx:TrackPointExtension></extensions></trkpt>
      <trkpt lat="43.367650" lon="-8.410000"><ele>30</ele><time>2024-05-02T07:05:40Z</time><extensions><gpxtpx:TrackPointExtension><gpxtpx:hr>144</gpxtpx:hr></gpxtpx:TrackPointExtension></extensions></trkpt>
      <trkpt lat="43.367875" lon="-8.410000"><ele>31</ele><time>2024-05-02T07:05:50Z</time><extensions><gpxtpx:TrackPointExtension><gpxtpx:hr>145</gpxtpx:hr></gpxtpx:TrackPointExtension></extensions></trkpt>
      <trkpt lat="43.368100" lon="-8.410000"><ele>20</ele><time>2024-05-02T07:06:00Z</time><extensions><gpxtpx:TrackPointExtension><gpxtpx:hr>146</gpxtpx:hr></gpxtpx:TrackPointExtension></extensions></trkpt>
      <trkpt lat="43.368325" lon="-8.410000"><ele>21</ele><time>2024-05-02T07:06:10Z</time><extensions><gpxtpx:TrackPointExtension><gpxtpx:hr>147</gpxtpx:hr></gpxtpx:TrackPointExtension></extensions></trkpt>
      <trkpt lat="43.368550" lon="-8.410000"><ele>22</ele><time>2024-05-02T07:06:20Z</time><extensions><gpxtpx:TrackPointExtension><gpxtpx:hr>148</gpxtpx:hr></gpxtpx:TrackPointExtension></extensions></trkpt>
      <trkpt lat="43.368775" lon="-8.410000"><ele>23</ele><time>2024-05-02T07:06:30Z</time><extensions><gpxtpx:TrackPointExtension><gpxtpx:hr>149</gpxtpx:hr></gpxtpx:TrackPointExtension></extensions></trkpt>
      <trkpt lat="43.369000" lon="-8.410000"><ele>24</ele><time>2024-05-02T07:06:40Z</time><extensions><gpxtpx:TrackPointExtension><gpxtpx:hr>140</gpxtpx:hr></gpxtpx:TrackPointExtension></extensions></trkpt>
      <trkpt lat="43.369225" lon="-8.410000"><ele>25</ele><time>2024-05-02T07:06:50Z</time><extensions><gpxtpx:TrackPointExtension><gpxtpx:hr>141</gpxtpx:hr></gpxtpx:TrackPointExtension></extensions></trkpt>
      <trkpt lat="43.369450" lon="-8.410000"><ele>26</ele><time>2024-05-02T07:07:00Z</time><extensions><gpxtpx:TrackPointExtension><gpxtpx:hr>142</gpxtpx:hr></gpxtpx:TrackPointExtension></extensions></trkpt>
      <trkpt lat="43.369675" lon="-8.410000"><ele>27</ele><time>2024-05-02T07:07:10Z</time><extensions><gpxtpx:TrackPointExtension><gpxtpx:hr>143</gpxtpx:hr></gpxtpx:TrackPointExtension></extensions></trkpt>
      <trkpt lat="43.369900" lon="-8.410000"><ele>28</ele><time>2024-05-02T07:07:20Z</time><extensions><gpxtpx:TrackPointExtension><gpxtpx:hr>144</gpxtpx:hr></gpxtpx:TrackPointExtension></extensions></trkpt>
      <trkpt lat="43.370125" lon="-8.410000"><ele>29</ele><time>2024-05-02T07:07:30Z</time><extensions><gpxtpx:TrackPointExtension><gpxtpx:hr>145</gpxtpx:hr></gpxtpx:TrackPointExtension></extensions></trkpt>
      <trkpt lat="43.370350" lon="-8.410000"><ele>30</ele><time>2024-05-02T07:07:40Z</time><extensions><gpxtpx:TrackPointExtension><gpxtpx:hr>146</gpxtpx:hr></gpxtpx:TrackPointExtension></extensions></trkpt>
      <trkpt lat="43.370575" lon="-8.410000"><ele>31</ele><time>2024-05-02T07:07:50Z</time><extensions><gpxtpx:TrackPointExtension><gpxtpx:hr>147</gpxtpx:hr></gpxtpx:TrackPointExtension></extensions></trkpt>
      <trkpt lat="43.370800" lon="-8.410000"><ele>20</ele><time>2024-05-02T07:08:00Z</time><extensions><gpxtpx:TrackPointExtension><gpxtpx:hr>148</gpxtpx:hr></gpxtpx:TrackPointExtension></extensions></trkpt>
      <trkpt lat="43.371025" lon="-8.410000"><ele>21</ele><time>2024-05-02T07:08:10Z</time><extensions><gpxtpx:TrackPointExtension><gpxtpx:hr>149</gpxtpx:hr></gpxtpx:TrackPointExtension></extensions></trkpt>
      <trkpt lat="43.371250" lon="-8.410000"><ele>22</ele><time>2024-05-02T07:08:20Z</time><extensions><gpxtpx:TrackPointExtension><gpxtpx:hr>140</gpxtpx:hr></gpxtpx:TrackPointExtension></extensions></trkpt>
      <trkpt lat="43.371475" lon="-8.410000"><ele>23</ele><time>2024-05-02T07:08:30Z</time><extensions><gpxtpx:TrackPointExtension><gpxtpx:hr>141</gpxtpx:hr></gpxtpx:TrackPointExtension></extensions></trkpt>
      <trkpt lat="43.371700" lon="-8.410000"><ele>24</ele><time>2024-05-02T07:08:40Z</time><extensions><gpxtpx:TrackPointExtension><gpxtpx:hr>142</gpxtpx:hr></gpxtpx:TrackPointExtension></extensions></trkpt>
      <trkpt lat="43.371925" lon="-8.410000"><ele>25</ele><time>2024-05-02T07:08:50Z</time><extensions><gpxtpx:TrackPointExtension><gpxtpx:hr>143</gpxtpx:hr></gpxtpx:TrackPointExtension></extensions></trkpt>
      <trkpt lat="43.372150" lon="-8.410000"><ele>26</ele><time>2024-05-02T07:09:00Z</time><extensions><gpxtpx:TrackPointExtension><gpxtpx:hr>144</gpxtpx:hr></gpxtpx:TrackPointExtension></extensions></trkpt>
      <trkpt lat="43.372375" lon="-8.410000"><ele>27</ele><time>2024-05-02T07:09:10Z</time><extensions><gpxtpx:TrackPointExtension><gpxtpx:hr>145</gpxtpx:hr></gpxtpx:TrackPointExtension></extensions></trkpt>
      <trkpt lat="43.372600" lon="-8.410000"><ele>28</ele><time>2024-05-02T07:09:20Z</time><extensions><gpxtpx:TrackPointExtension><gpxtpx:hr>146</gpxtpx:hr></gpxtpx:TrackPointExtension></extensions></trkpt>
      <trkpt lat="43.372825" lon="-8.410000"><ele>29</ele><time>2024-05-02T07:09:30Z</time><extensions><gpxtpx:TrackPointExtension><gpxtpx:hr>147</gpxtpx:hr></gpxtpx:TrackPointExtension></extensions></trkpt>
      <trkpt lat="43.373050" lon="-8.410000"><ele>30</ele><time>2024-05-02T07:09:40Z</time><extensions><gpxtpx:TrackPointExtension><gpxtpx:hr>148</gpxtpx:hr></gpxtpx:TrackPointExtension></extensions></trkpt>
      <trkpt lat="43.373275" lon="-8.410000"><ele>31</ele><time>2024-05-02T07:09:50Z</time><extensions><gpxtpx:TrackPointExtension><gpxtpx:hr>149</gpxtpx:hr></gpxtpx:TrackPointExtension></extensions></trkpt>
      <trkpt lat="43.373500" lon="-8.410000"><ele>20</ele><time>2024-05-02T07:10:00Z</time><extensions><gpxtpx:TrackPointExtension><gpxtpx:hr>140</gpxtpx:hr></gpxtpx:TrackPointExtension></extensions></trkpt>
    </trkseg>
  </trk>
</gpx>
